{
  "type": "FeatureCollection",
  "features": [
    {
      "type": "Feature",
      "properties": {
        "norad_id": 67138,
        "name": "KUIPER-00183",
        "group": "last-30-days",
        "lat": -24.97906929181202,
        "lon": 38.31264297227929,
        "alt_km": 474.68612860829853,
        "timestamp": "2025-12-26T07:29:17.197134+00:00",
        "meta_object_name": "KUIPER-00183",
        "meta_object_id": "2025-301F",
        "meta_epoch": "2025-12-25T22:00:01.999584",
        "meta_mean_motion": 15.34070602,
        "meta_eccentricity": 0.00112143,
        "meta_inclination": 51.8613,
        "meta_ra_of_asc_node": 61.6881,
        "meta_arg_of_pericenter": 147.4074,
        "meta_mean_anomaly": 155.6094,
        "meta_ephemeris_type": 0,
        "meta_classification_type": "U",
        "meta_norad_cat_id": 67138,
        "meta_element_set_no": 999,
        "meta_rev_at_epoch": 255,
        "meta_bstar": 0.00015822463,
        "meta_mean_motion_dot": 4.926e-05,
        "meta_mean_motion_ddot": 0,
        "tle_line1": "1 67138U 25301F   25359.91668981  .00004926  00000+0  15822-3 0  9999",
        "tle_line2": "2 67138  51.8613  61.6881 0011214 147.4074 155.6094 15.34070602  2557"
      },
      "geometry": {
        "type": "Point",
        "coordinates": [
          38.31264297227929,
          -24.97906929181202
        ]
      }
    },
    {
      "type": "Feature",
      "properties": {
        "norad_id": 67139,
        "name": "KUIPER-00184",
        "group": "last-30-days",
        "lat": -12.456343181659301,
        "lon": 49.75681042037305,
        "alt_km": 470.5533211363072,
        "timestamp": "2025-12-26T07:29:17.197146+00:00",
        "meta_object_name": "KUIPER-00184",
        "meta_object_id": "2025-301G",
        "meta_epoch": "2025-12-25T22:00:01.999584",
        "meta_mean_motion": 15.34411365,
        "meta_eccentricity": 0.00090174,
        "meta_inclination": 51.8627,
        "meta_ra_of_asc_node": 61.6558,
        "meta_arg_of_pericenter": 139.8828,
        "meta_mean_anomaly": 179.2616,
        "meta_ephemeris_type": 0,
        "meta_classification_type": "U",
        "meta_norad_cat_id": 67139,
        "meta_element_set_no": 999,
        "meta_rev_at_epoch": 266,
        "meta_bstar": 0.00026928685,
        "meta_mean_motion_dot": 8.749e-05,
        "meta_mean_motion_ddot": 0,
        "tle_line1": "1 67139U 25301G   25359.91668981  .00008749  00000+0  26929-3 0  9997",
        "tle_line2": "2 67139  51.8627  61.6558 0009017 139.8828 179.2616 15.34411365  2663"
      },
      "geometry": {
        "type": "Point",
        "coordinates": [
          49.75681042037305,
          -12.456343181659301
        ]
      }
    },
    {
      "type": "Feature",
      "properties": {
        "norad_id": 67140,
        "name": "KUIPER-00186",
        "group": "last-30-days",
        "lat": 1.6911665075154776,
        "lon": 61.043843220066854,
        "alt_km": 464.7228527856996,
        "timestamp": "2025-12-26T07:29:17.197156+00:00",
        "meta_object_name": "KUIPER-00186",
        "meta_object_id": "2025-301H",
        "meta_epoch": "2025-12-25T22:00:01.999584",
        "meta_mean_motion": 15.35002429,
        "meta_eccentricity": 0.00076144,
        "meta_inclination": 51.8684,
        "meta_ra_of_asc_node": 61.6205,
        "meta_arg_of_pericenter": 130.0723,
        "meta_mean_anomaly": 206.3314,
        "meta_ephemeris_type": 0,
        "meta_classification_type": "U",
        "meta_norad_cat_id": 67140,
        "meta_element_set_no": 999,
        "meta_rev_at_epoch": 130,
        "meta_bstar": 0.00022778587,
        "meta_mean_motion_dot": 7.483e-05,
        "meta_mean_motion_ddot": 0,
        "tle_line1": "1 67140U 25301H   25359.91668981  .00007483  00000+0  22779-3 0  9992",
        "tle_line2": "2 67140  51.8684  61.6205 0007614 130.0723 206.3314 15.35002429  1300"
      },
      "geometry": {
        "type": "Point",
        "coordinates": [
          61.043843220066854,
          1.6911665075154776
        ]
      }
    },
    {
      "type": "Feature",
      "properties": {
        "norad_id": 67141,
        "name": "KUIPER-00187",
        "group": "last-30-days",
        "lat": 24.038403440807915,
        "lon": 80.16275202593299,
        "alt_km": 455.43508399671737,
        "timestamp": "2025-12-26T07:29:17.197166+00:00",
        "meta_object_name": "KUIPER-00187",
        "meta_object_id": "2025-301J",
        "meta_epoch": "2025-12-25T22:00:01.999584",
        "meta_mean_motion": 15.35819131,
        "meta_eccentricity": 0.00044512,
        "meta_inclination": 51.8713,
        "meta_ra_of_asc_node": 61.5624,
        "meta_arg_of_pericenter": 115.9009,
        "meta_mean_anomaly": 248.3499,
        "meta_ephemeris_type": 0,
        "meta_classification_type": "U",
        "meta_norad_cat_id": 67141,
        "meta_element_set_no": 999,
        "meta_rev_at_epoch": 218,
        "meta_bstar": 0.00028608455,
        "meta_mean_motion_dot": 9.754e-05,
        "meta_mean_motion_ddot": 0,
        "tle_line1": "1 67141U 25301J   25359.91668981  .00009754  00000+0  28608-3 0  9993",
        "tle_line2": "2 67141  51.8713  61.5624 0004451 115.9009 248.3499 15.35819131  2186"
      },
      "geometry": {
        "type": "Point",
        "coordinates": [
          80.16275202593299,
          24.038403440807915
        ]
      }
    },
    {
      "type": "Feature",
      "properties": {
        "norad_id": 67142,
        "name": "KUIPER-00188",
        "group": "last-30-days",
        "lat": -1.0584126098455222,
        "lon": 58.890137786988596,
        "alt_km": 465.77616782107907,
        "timestamp": "2025-12-26T07:29:17.197175+00:00",
        "meta_object_name": "KUIPER-00188",
        "meta_object_id": "2025-301K",
        "meta_epoch": "2025-12-25T22:00:01.999584",
        "meta_mean_motion": 15.34911498,
        "meta_eccentricity": 0.00073791,
        "meta_inclination": 51.8695,
        "meta_ra_of_asc_node": 61.627,
        "meta_arg_of_pericenter": 134.7389,
        "meta_mean_anomaly": 198.2882,
        "meta_ephemeris_type": 0,
        "meta_classification_type": "U",
        "meta_norad_cat_id": 67142,
        "meta_element_set_no": 999,
        "meta_rev_at_epoch": 130,
        "meta_bstar": 0.00022031155,
        "meta_mean_motion_dot": 7.202e-05,
        "meta_mean_motion_ddot": 0,
        "tle_line1": "1 67142U 25301K   25359.91668981  .00007202  00000+0  22031-3 0  9994",
        "tle_line2": "2 67142  51.8695  61.6270 0007379 134.7389 198.2882 15.34911498  1306"
      },
      "geometry": {
        "type": "Point",
        "coordinates": [
          58.890137786988596,
          -1.0584126098455222
        ]
      }
    },
    {
      "type": "Feature",
      "properties": {
        "norad_id": 67143,
        "name": "KUIPER-00191",
        "group": "last-30-days",
        "lat": 5.5739017703645315,
        "lon": 64.10209737203108,
        "alt_km": 463.17520688900004,
        "timestamp": "2025-12-26T07:29:17.197185+00:00",
        "meta_object_name": "KUIPER-00191",
        "meta_object_id": "2025-301L",
        "meta_epoch": "2025-12-25T22:00:01.999584",
        "meta_mean_motion": 15.35141234,
        "meta_eccentricity": 0.00066966,
        "meta_inclination": 51.8674,
        "meta_ra_of_asc_node": 61.6113,
        "meta_arg_of_pericenter": 131.7849,
        "meta_mean_anomaly": 209.358,
        "meta_ephemeris_type": 0,
        "meta_classification_type": "U",
        "meta_norad_cat_id": 67143,
        "meta_element_set_no": 999,
        "meta_rev_at_epoch": 241,
        "meta_bstar": 0.00023900058,
        "meta_mean_motion_dot": 7.906e-05,
        "meta_mean_motion_ddot": 0,
        "tle_line1": "1 67143U 25301L   25359.91668981  .00007906  00000+0  23900-3 0  9992",
        "tle_line2": "2 67143  51.8674  61.6113 0006696 131.7849 209.3580 15.35141234  2415"
      },
      "geometry": {
        "type": "Point",
        "coordinates": [
          64.10209737203108,
          5.5739017703645315
        ]
      }
    },
    {
      "type": "Feature",
      "properties": {
        "norad_id": 67144,
        "name": "KUIPER-00196",
        "group": "last-30-days",
        "lat": 29.961532635278274,
        "lon": 86.55523383068928,
        "alt_km": 452.89732256321986,
        "timestamp": "2025-12-26T07:29:17.197195+00:00",
        "meta_object_name": "KUIPER-00196",
        "meta_object_id": "2025-301M",
        "meta_epoch": "2025-12-25T22:00:01.999584",
        "meta_mean_motion": 15.36019472,
        "meta_eccentricity": 0.00039275,
        "meta_inclination": 51.8733,
        "meta_ra_of_asc_node": 61.5432,
        "meta_arg_of_pericenter": 101.6176,
        "meta_mean_anomaly": 270.5544,
        "meta_ephemeris_type": 0,
        "meta_classification_type": "U",
        "meta_norad_cat_id": 67144,
        "meta_element_set_no": 999,
        "meta_rev_at_epoch": 212,
        "meta_bstar": 0.00029994043,
        "meta_mean_motion_dot": 0.00010313,
        "meta_mean_motion_ddot": 0,
        "tle_line1": "1 67144U 25301M   25359.91668981  .00010313  00000+0  29994-3 0  9998",
        "tle_line2": "2 67144  51.8733  61.5432 0003927 101.6176 270.5544 15.36019472  2125"
      },
      "geometry": {
        "type": "Point",
        "coordinates": [
          86.55523383068928,
          29.961532635278274
        ]
      }
    }
  ]
}